CHUBUSAT-1              
1 40300U 14070C   17346.43088345  .00000689  00000-0  33773-4 0  9995
2 40300  97.3826  62.9759 0019618 193.0352 227.5016 15.21281519171883
